start=new Date('2022-03-26T00:00:00.000Z').valueOf();
sats=[{"OBJECT_TYPE":"PAYLOAD","CLASSIFICATION_TYPE":"U","MEAN_MOTION_DOT":"0.00000130","OBJECT_NAME":"STARLINK-2388","BSTAR":"0.00002764800000","INCLINATION":"53.0567","NORAD_CAT_ID":"47807","REV_AT_EPOCH":"5887","PERIAPSIS":"546.184","MEAN_MOTION":"15.06403322","REF_FRAME":"TEME","ARG_OF_PERICENTER":"55.3744","EPHEMERIS_TYPE":"0","OBJECT_ID":"2021-018W","RCS_SIZE":"LARGE","ELEMENT_SET_NO":"999","MEAN_MOTION_DDOT":"0.0000000000000","SITE":"AFETR","APOAPSIS":"548.223","RA_OF_ASC_NODE":"228.4087","MEAN_ELEMENT_THEORY":"SGP4","SEMIMAJOR_AXIS":"6925.338","TLE_LINE2":"2 47807  53.0567 228.4087 0001472  55.3744 304.7384 15.06403322 58870","PERIOD":"95.592","ECCENTRICITY":"0.00014720","DECAY_DATE":null,"TLE_LINE1":"1 47807U 21018W   22084.70477752  .00000130  00000-0  27648-4 0  9998","MEAN_ANOMALY":"304.7384","TIME_SYSTEM":"UTC","LAUNCH_DATE":"2021-03-11","COUNTRY_CODE":"US","EPOCH":"2022-03-25T16:54:52.777728","GP_ID":"199669469","CENTER_NAME":"EARTH","FILE":"3374003"},{"APOAPSIS":"548.301","SITE":"AFETR","MEAN_MOTION_DDOT":"0.0000000000000","MEAN_ELEMENT_THEORY":"SGP4","SEMIMAJOR_AXIS":"6925.377","RA_OF_ASC_NODE":"253.2900","MEAN_ANOMALY":"287.2784","TIME_SYSTEM":"UTC","TLE_LINE1":"1 47808U 21018X   22084.73381773  .00000060  00000-0  22912-4 0  9990","DECAY_DATE":null,"ECCENTRICITY":"0.00015300","TLE_LINE2":"2 47808  53.0534 253.2900 0001530  72.8372 287.2784 15.06390821 58532","PERIOD":"95.593","FILE":"3374005","CENTER_NAME":"EARTH","EPOCH":"2022-03-25T17:36:41.851872","LAUNCH_DATE":"2021-03-11","COUNTRY_CODE":"US","GP_ID":"199669996","OBJECT_NAME":"STARLINK-2389","MEAN_MOTION_DOT":"0.00000060","CLASSIFICATION_TYPE":"U","OBJECT_TYPE":"PAYLOAD","NORAD_CAT_ID":"47808","PERIAPSIS":"546.182","REV_AT_EPOCH":"5853","INCLINATION":"53.0534","BSTAR":"0.00002291200000","EPHEMERIS_TYPE":"0","OBJECT_ID":"2021-018X","REF_FRAME":"TEME","ARG_OF_PERICENTER":"72.8372","MEAN_MOTION":"15.06390821","ELEMENT_SET_NO":"999","RCS_SIZE":"LARGE"},{"MEAN_MOTION":"15.06404497","OBJECT_ID":"2021-018Y","EPHEMERIS_TYPE":"0","REF_FRAME":"TEME","ARG_OF_PERICENTER":"68.8588","RCS_SIZE":"LARGE","ELEMENT_SET_NO":"999","OBJECT_TYPE":"PAYLOAD","MEAN_MOTION_DOT":"0.00002291","CLASSIFICATION_TYPE":"U","OBJECT_NAME":"STARLINK-2390","BSTAR":"0.00017261000000","NORAD_CAT_ID":"47809","PERIAPSIS":"546.142","REV_AT_EPOCH":"5847","INCLINATION":"53.0538","DECAY_DATE":null,"ECCENTRICITY":"0.00015280","TLE_LINE2":"2 47809  53.0538 257.9524 0001528  68.8588 291.2564 15.06404497 58470","PERIOD":"95.592","MEAN_ANOMALY":"291.2564","TIME_SYSTEM":"UTC","TLE_LINE1":"1 47809U 21018Y   22084.80522145  .00002291  00000-0  17261-3 0  9997","CENTER_NAME":"EARTH","LAUNCH_DATE":"2021-03-11","EPOCH":"2022-03-25T19:19:31.133280","COUNTRY_CODE":"US","GP_ID":"199672546","FILE":"3374138","MEAN_MOTION_DDOT":"0.0000000000000","SITE":"AFETR","APOAPSIS":"548.258","RA_OF_ASC_NODE":"257.9524","SEMIMAJOR_AXIS":"6925.335","MEAN_ELEMENT_THEORY":"SGP4"},{"MEAN_ANOMALY":"284.8945","TIME_SYSTEM":"UTC","TLE_LINE1":"1 47810U 21018Z   22084.49837076  .00007833  00000-0  54434-3 0  9996","ECCENTRICITY":"0.00013140","DECAY_DATE":null,"PERIOD":"95.593","TLE_LINE2":"2 47810  53.0534 269.3455 0001314  75.2189 284.8945 15.06387638 58681","FILE":"3373822","CENTER_NAME":"EARTH","GP_ID":"199663149","COUNTRY_CODE":"US","LAUNCH_DATE":"2021-03-11","EPOCH":"2022-03-25T11:57:39.233664","SITE":"AFETR","APOAPSIS":"548.161","MEAN_MOTION_DDOT":"0.0000000000000","MEAN_ELEMENT_THEORY":"SGP4","SEMIMAJOR_AXIS":"6925.386","RA_OF_ASC_NODE":"269.3455","OBJECT_ID":"2021-018Z","EPHEMERIS_TYPE":"0","ARG_OF_PERICENTER":"75.2189","REF_FRAME":"TEME","MEAN_MOTION":"15.06387638","ELEMENT_SET_NO":"999","RCS_SIZE":"LARGE","MEAN_MOTION_DOT":"0.00007833","CLASSIFICATION_TYPE":"U","OBJECT_NAME":"STARLINK-2391","OBJECT_TYPE":"PAYLOAD","PERIAPSIS":"546.341","REV_AT_EPOCH":"5868","NORAD_CAT_ID":"47810","INCLINATION":"53.0534","BSTAR":"0.00054434000000"},{"FILE":"3374005","CENTER_NAME":"EARTH","GP_ID":"199669502","EPOCH":"2022-03-25T19:16:52.170240","LAUNCH_DATE":"2021-03-11","COUNTRY_CODE":"US","TIME_SYSTEM":"UTC","MEAN_ANOMALY":"291.8172","TLE_LINE1":"1 47811U 21018AA  22084.80338160 -.00000013  00000-0  18016-4 0  9993","DECAY_DATE":null,"ECCENTRICITY":"0.00015210","PERIOD":"95.592","TLE_LINE2":"2 47811  53.0532 237.9704 0001521  68.2979 291.8172 15.06396721 58758","MEAN_ELEMENT_THEORY":"SGP4","SEMIMAJOR_AXIS":"6925.359","RA_OF_ASC_NODE":"237.9704","APOAPSIS":"548.277","SITE":"AFETR","MEAN_MOTION_DDOT":"0.0000000000000","ELEMENT_SET_NO":"999","RCS_SIZE":"LARGE","EPHEMERIS_TYPE":"0","OBJECT_ID":"2021-018AA","REF_FRAME":"TEME","ARG_OF_PERICENTER":"68.2979","MEAN_MOTION":"15.06396721","PERIAPSIS":"546.170","REV_AT_EPOCH":"5875","NORAD_CAT_ID":"47811","INCLINATION":"53.0532","BSTAR":"0.00001801600000","MEAN_MOTION_DOT":"-0.00000013","OBJECT_NAME":"STARLINK-2392","CLASSIFICATION_TYPE":"U","OBJECT_TYPE":"PAYLOAD"},{"FILE":"3374006","COUNTRY_CODE":"US","LAUNCH_DATE":"2021-03-11","EPOCH":"2022-03-25T18:35:43.857888","GP_ID":"199670011","CENTER_NAME":"EARTH","TLE_LINE1":"1 47812U 21018AB  22084.77481317  .00000371  00000-0  43793-4 0  9999","MEAN_ANOMALY":"289.6402","TIME_SYSTEM":"UTC","TLE_LINE2":"2 47812  53.0552 268.0985 0001631  70.4763 289.6402 15.06397314 58328","PERIOD":"95.592","DECAY_DATE":null,"ECCENTRICITY":"0.00016310","MEAN_ELEMENT_THEORY":"SGP4","SEMIMAJOR_AXIS":"6925.357","RA_OF_ASC_NODE":"268.0985","SITE":"AFETR","APOAPSIS":"548.351","MEAN_MOTION_DDOT":"0.0000000000000","ELEMENT_SET_NO":"999","RCS_SIZE":"LARGE","REF_FRAME":"TEME","ARG_OF_PERICENTER":"70.4763","EPHEMERIS_TYPE":"0","OBJECT_ID":"2021-018AB","MEAN_MOTION":"15.06397314","INCLINATION":"53.0552","NORAD_CAT_ID":"47812","PERIAPSIS":"546.092","REV_AT_EPOCH":"5832","BSTAR":"0.00004379300000","MEAN_MOTION_DOT":"0.00000371","OBJECT_NAME":"STARLINK-2393","CLASSIFICATION_TYPE":"U","OBJECT_TYPE":"PAYLOAD"},{"MEAN_ELEMENT_THEORY":"SGP4","SEMIMAJOR_AXIS":"6925.353","RA_OF_ASC_NODE":"238.4642","SITE":"AFETR","APOAPSIS":"548.212","MEAN_MOTION_DDOT":"0.0000000000000","FILE":"3374008","LAUNCH_DATE":"2021-03-11","COUNTRY_CODE":"US","EPOCH":"2022-03-25T16:37:37.744608","GP_ID":"199670046","CENTER_NAME":"EARTH","TLE_LINE1":"1 47813U 21018AC  22084.69279797 -.00000241  00000-0  27481-5 0  9992","MEAN_ANOMALY":"290.9645","TIME_SYSTEM":"UTC","TLE_LINE2":"2 47813  53.0555 238.4642 0001436  69.1498 290.9645 15.06398644 58732","PERIOD":"95.592","ECCENTRICITY":"0.00014360","DECAY_DATE":null,"INCLINATION":"53.0555","NORAD_CAT_ID":"47813","PERIAPSIS":"546.223","REV_AT_EPOCH":"5873","BSTAR":"0.00000274810000","OBJECT_NAME":"STARLINK-2394","MEAN_MOTION_DOT":"-0.00000241","CLASSIFICATION_TYPE":"U","OBJECT_TYPE":"PAYLOAD","ELEMENT_SET_NO":"999","RCS_SIZE":"LARGE","ARG_OF_PERICENTER":"69.1498","REF_FRAME":"TEME","EPHEMERIS_TYPE":"0","OBJECT_ID":"2021-018AC","MEAN_MOTION":"15.06398644"},{"MEAN_MOTION":"15.06398978","EPHEMERIS_TYPE":"0","OBJECT_ID":"2021-018AD","REF_FRAME":"TEME","ARG_OF_PERICENTER":"57.9715","RCS_SIZE":"MEDIUM","ELEMENT_SET_NO":"999","OBJECT_TYPE":"PAYLOAD","OBJECT_NAME":"STARLINK-2395","MEAN_MOTION_DOT":"0.00001292","CLASSIFICATION_TYPE":"U","BSTAR":"0.00010564000000","REV_AT_EPOCH":"5849","PERIAPSIS":"546.119","NORAD_CAT_ID":"47814","INCLINATION":"53.0547","ECCENTRICITY":"0.00015850","DECAY_DATE":null,"PERIOD":"95.592","TLE_LINE2":"2 47814  53.0547 257.7660 0001585  57.9715 302.1428 15.06398978 58498","MEAN_ANOMALY":"302.1428","TIME_SYSTEM":"UTC","TLE_LINE1":"1 47814U 21018AD  22084.84945403  .00001292  00000-0  10564-3 0  9992","CENTER_NAME":"EARTH","GP_ID":"199668147","EPOCH":"2022-03-25T20:23:12.828192","LAUNCH_DATE":"2021-03-11","COUNTRY_CODE":"US","FILE":"3373937","MEAN_MOTION_DDOT":"0.0000000000000","APOAPSIS":"548.314","SITE":"AFETR","RA_OF_ASC_NODE":"257.7660","SEMIMAJOR_AXIS":"6925.352","MEAN_ELEMENT_THEORY":"SGP4"},{"LAUNCH_DATE":"2021-03-11","COUNTRY_CODE":"US","EPOCH":"2022-03-24T21:15:53.849088","GP_ID":"199620896","CENTER_NAME":"EARTH","FILE":"3373054","TLE_LINE2":"2 47815  53.0536 257.0828 0001725  62.4609 297.6555 15.06397551 58748","PERIOD":"95.592","ECCENTRICITY":"0.00017250","DECAY_DATE":null,"TLE_LINE1":"1 47815U 21018AE  22083.88603992 -.00000395  00000-0 -75849-5 0  9994","MEAN_ANOMALY":"297.6555","TIME_SYSTEM":"UTC","RA_OF_ASC_NODE":"257.0828","MEAN_ELEMENT_THEORY":"SGP4","SEMIMAJOR_AXIS":"6925.356","MEAN_MOTION_DDOT":"0.0000000000000","SITE":"AFETR","APOAPSIS":"548.416","RCS_SIZE":"LARGE","ELEMENT_SET_NO":"999","MEAN_MOTION":"15.06397551","ARG_OF_PERICENTER":"62.4609","REF_FRAME":"TEME","OBJECT_ID":"2021-018AE","EPHEMERIS_TYPE":"0","BSTAR":"-0.00000758490000","INCLINATION":"53.0536","NORAD_CAT_ID":"47815","PERIAPSIS":"546.026","REV_AT_EPOCH":"5874","OBJECT_TYPE":"PAYLOAD","OBJECT_NAME":"STARLINK-2396","MEAN_MOTION_DOT":"-0.00000395","CLASSIFICATION_TYPE":"U"},{"APOAPSIS":"548.214","SITE":"AFETR","MEAN_MOTION_DDOT":"0.0000000000000","SEMIMAJOR_AXIS":"6925.351","MEAN_ELEMENT_THEORY":"SGP4","RA_OF_ASC_NODE":"259.3695","TLE_LINE1":"1 47816U 21018AF  22084.49191837  .00002286  00000-0  17231-3 0  9991","MEAN_ANOMALY":"299.5382","TIME_SYSTEM":"UTC","PERIOD":"95.592","TLE_LINE2":"2 47816  53.0525 259.3695 0001442  60.5751 299.5382 15.06399341 58767","ECCENTRICITY":"0.00014420","DECAY_DATE":null,"FILE":"3373822","GP_ID":"199662149","EPOCH":"2022-03-25T11:48:21.747168","LAUNCH_DATE":"2021-03-11","COUNTRY_CODE":"US","CENTER_NAME":"EARTH","MEAN_MOTION_DOT":"0.00002286","OBJECT_NAME":"STARLINK-2399","CLASSIFICATION_TYPE":"U","OBJECT_TYPE":"PAYLOAD","INCLINATION":"53.0525","PERIAPSIS":"546.217","REV_AT_EPOCH":"5876","NORAD_CAT_ID":"47816","BSTAR":"0.00017231000000","REF_FRAME":"TEME","ARG_OF_PERICENTER":"60.5751","OBJECT_ID":"2021-018AF","EPHEMERIS_TYPE":"0","MEAN_MOTION":"15.06399341","ELEMENT_SET_NO":"999","RCS_SIZE":"LARGE"}];
